#dP2022  5 13  0  0  0.00000000      97 __u+U IGS14 FIT  IAC
## 2209 432000.00000000   900.00000000 59712 0.0000000000000
+  115   C06C07C08C09C10C11C12C13C14C16C19C20C21C22C23C24C25
+        C26C27C28C29C30C32C33C34C35C36C37C38C39C40C41C42C43
+        C44C45C46E02E03E04E05E07E08E09E10E11E12E13E14E15E18
+        E19E21E24E25E26E27E30E31E33E34E36G01G02G03G04G05G06
+        G07G08G09G10G12G13G14G15G16G17G18G19G20G21G22G23G24
+        G25G26G27G28G29G30G31G32J02J03R01R02R03R04R05R07R08
+        R09R11R12R13R14R15R17R18R19R20R21R22R24  0  0  0  0
++         7  7  7  7  7  7  6  7  7  7  5  6  6  6  6  6  6
++         5  5  6  5  5  6  6  6  6  6  6  6  6  7  6  6  6
++         6  6  6  4  4  4  4  4  4  4  4  4  4  4  4  4  5
++         4  4  4  4  4  4  4  4  4  4  4  4  3  3  3  3  3
++         3  3  3  3  3  3  4  4  3  3  3  4  3  3  4  3  3
++         3  3  3  4  3  3  4  4  9  9  7  6  6  6  6  6  6
++         6  6  6  7  7  6  6  6  7  7  6  7  6  0  0  0  0
%c M  cc GPS ccc cccc cccc cccc cccc ccccc ccccc ccccc ccccc
%c cc cc ccc ccc cccc cccc cccc cccc ccccc ccccc ccccc ccccc
%f  1.2500000  1.025000000  0.00000000000  0.000000000000000
%f  0.0000000  0.000000000  0.00000000000  0.000000000000000
%i    0    0    0    0      0      0      0      0         0
%i    0    0    0    0      0      0      0      0         0
/* INFORMATION & ANALYSIS CENTER (IAC)            FINAL DATA
/* S/V CLOCKS ARE ALIGNED TO GNSS TIME                      
/* G:C1WC2W R:C1PC2P E:C1XC5X C:C2IC6I J:C1CC2S             
/* PCV:IGS14_2196 OL/AL:FES2004  NONE     YN ORB:CoN CLK:CoN
*  2022 05 13  0 45  0.00000000
PC06 -14239.628616  39287.617152   4750.468006    -26.736282
PC07  -2898.772078  31521.875402  27922.574097   -158.889532
PC08 -15664.132239  21040.204593 -33050.556152    309.724015
PC09  -8652.633771  38701.320030  13916.360974   -782.076109
PC10   5118.624449  34861.966110  23749.011756    132.534508
PC11  17422.922962 -15373.727537 -15376.802494    348.644924
PC12  14962.682559   3818.259392 -23214.652359   -617.010001
PC13  -6577.319849  22879.293225 -34706.506576    -34.504868
PC14  15782.647780  -5182.090507  22457.755677    473.674152
PC16 -15945.181573  38846.517997   1862.421870    130.641598
PC19  -8432.510320  14141.094739 -22503.539948    870.483682
PC20 -19619.772722  -2795.854711 -19612.650247   -912.648103
PC21  19713.144227  19207.466553   4720.641050   -280.253167
PC22   8065.674878  23631.841978 -12486.348866   -970.834600
PC23    116.707033 -16410.532784 -22565.542944   -930.106351
PC24  27667.678000  -2199.855271   2775.571758   -963.679805
PC25  18820.876732 -14200.036067 -14920.459995   -737.527052
PC26  20294.236524   8765.384994  17000.647306    738.689913
PC27 -10894.611022 -13449.298068  21869.377222    722.282040
PC28   2155.576547 -25586.744288  10925.679409     66.070143
PC29 -13550.530223  23357.544693   7018.573171    553.864902
PC30 -17574.169758   6493.428813  20662.624957    498.398465
PC32 -19809.117417 -19086.866969  -4622.872758   -963.105407
PC33   8494.625174 -14112.065984  22533.662958   -965.802996
PC34  17720.990803  -7595.892489 -20199.246123   -404.872218
PC35  -1935.606967  25946.362578 -10052.704309    271.320910
PC36 -19591.072349  13564.316619  14549.804630   -964.141941
PC37 -19173.113537  -9868.420545 -17708.745686   -912.624983
PC38 -22869.925835  22027.049723 -27785.105947    231.721113
PC39 -17604.894567  37878.660719  -5026.467802     34.976206
PC40  -6165.532216  26846.127204  31956.888330    268.565596
PC41  -7663.432754 -23534.624496  12939.776464   -965.865128
PC42  20068.691827   3771.795337  19079.851531   -967.952643
PC43  14011.431315 -22904.684338  -7663.954210   -924.465455
PC44  11417.120763  13246.767183 -21754.749419    657.712402
PC45    186.866898  16262.965843  22679.988134    755.490534
PC46 -27703.504994   3254.182458  -1327.998477   -321.425407
PE02  24908.600345  14456.998039   6797.843695    298.788206
PE03  15421.093269  18439.965502  17287.163783   -557.646895
PE04 -16844.789266   2754.766056 -24170.579560  -1026.651918
PE05   4890.687710  29195.825789     93.065694   -182.181754
PE07   8345.746830 -22808.421618  16924.244551   -667.901398
PE08  16651.355009  -3095.505310  24283.234336   -528.084335
PE09  -8071.178712  22936.512605 -16881.839204   -516.232283
PE10 -23983.391230  16950.052685   3676.140830   -512.624544
PE11 -19191.390770  21515.444447  -6669.994085   3687.794062
PE12 -24821.974995   9751.091061  12812.269802   4616.725557
PE13  19615.683596 -21353.279731   5984.261178    428.639432
PE14 -14859.217624  -4225.044570  17977.942661  -1839.353891
PE15  24768.152695  -9737.308034 -12968.479401    746.027341
PE18  19464.586537   9916.451871 -23792.167899  -1455.864153
PE19 -14400.815909 -20609.025107 -15610.064765  -4566.873226
PE21  -9340.351958 -18747.540836 -20919.151544   -733.836014
PE24 -13768.710878  11821.965208  23374.290548   -611.706696
PE25   9043.607841  18735.681804  21057.717845   -573.723127
PE26   2000.916507 -20062.153268  21672.737692  -1137.752216
PE27  12487.817771 -12529.017901 -23730.166645   -297.415521
PE30  27116.331393   1817.041000 -11723.808177   -505.624458
PE31 -26788.152966  -1005.895609  12560.672731   -496.530684
PE33 -15279.690964  -7579.733963  24189.249807   -456.695855
PE34  15462.483274   7381.454491 -24146.903750   -516.752936
PE36  -2968.433955  20342.046800 -21293.591599   -372.810421
PG01  -7315.796307  18385.347520 -17834.601726    364.284152
PG02  21454.360265 -15747.241801   -528.080097   -653.261835
PG03   2896.182310  17046.134315 -20302.014948   -242.083933
PG04  -1202.233641  26397.773215  -2147.661474   -167.796142
PG05  13291.987068  -9761.319528  20687.238880    -81.631599
PG06  22213.500928  -2907.249915 -14269.550927    301.137133
PG07   9618.145687  12370.400021  21863.697476    322.008637
PG08  -6253.472469  23051.148899  11193.364278    -67.764214
PG09   7210.438147  24264.877630   7924.324210   -337.182275
PG10 -24040.860059 -11608.804119   -986.915125   -412.293653
PG12   2499.445211 -15769.795730 -21510.221178   -214.553358
PG13  12860.750804 -16065.264096  16542.869029    310.532045
PG14  23212.920626  13006.473211   -201.975497   -107.996541
PG15   3309.126245 -24072.929672   9935.392250    -61.713382
PG16 -17981.953064   4020.893670  19022.626685   -500.341553
PG17  13091.573470  11256.926224 -19736.178797    611.919726
PG18  -8247.603311 -12502.943405  21926.772208    171.685064
PG19  14754.817487   3174.255416 -22128.912029    156.553865
PG20  21551.085188  -4155.739933  14793.795972    515.221813
PG21 -15693.104541  19070.480606  -8157.464698    161.049285
PG22 -15025.718822    276.384899 -21481.491591    258.175348
PG23 -18889.722787 -16247.027924   9338.351078    -21.479569
PG24   9724.796586 -20341.371926 -14006.530373    242.112158
PG25 -12597.196299 -18305.109995 -15038.093850    323.948041
PG26 -24329.305955  -2344.447123  10680.303864    205.212509
PG27 -12568.491514  12736.605972  19277.896796    201.837444
PG28  23500.331728   8245.192595  -8377.152874    358.918918
PG29  -4522.926814 -24914.230669   7854.009945   -513.008876
PG30  17813.247679   5523.021018  19084.398189   -527.657569
PG31 -23584.886564   4367.709279 -12028.772362   -177.367319
PG32 -14768.975335  -8354.567541 -20332.084662   -125.770468
PJ02 -27388.609627  22377.031860  27959.081336     -0.112077
PJ03 -32027.689093  26473.950005  12121.984710     -2.114345
PR01  15870.214981  13908.613925  14350.422221      8.654722
PR02   9798.957075  -4764.866957  23111.258764    518.210619
PR03  -1313.137671 -19226.109315  16791.341156     56.543643
PR04 -11457.568008 -22760.151679   1283.859499    141.224383
PR05 -15285.045362 -13893.939766 -14963.624204     92.772824
PR07   1817.261624  19581.897861 -16175.216089     35.009956
PR08  11650.437081  22654.854311   -985.527276    -65.095034
PR09 -22526.708312   5126.369167  10745.790733     54.734157
PR11  10615.647229  10028.912738  20927.504800     39.145371
PR12  24221.586833   3885.901453   6985.628074     18.410384
PR13  23228.798198  -4332.369778  -9624.655841    -22.218960
PR14   7871.487299 -10442.750626 -21893.297091     25.746797
PR15 -11351.096601 -10094.334302 -20472.394830     96.166726
PR17  11334.832107 -22313.710940   4839.650133    525.538629
PR18    777.414665 -17088.998162  18953.390756    116.648300
PR19  -9587.583032  -4220.067730  23251.640294   -188.794705
PR20 -16603.684274  14185.314627  13144.242509    -70.464501
PR21 -10702.603612  22286.650965  -6330.859146   -300.773201
PR22   -210.383584  16403.416514 -19513.953743   -182.792253
PR24  16479.661288 -14987.996349 -12408.796752     93.463092
EOF
